{
  "type": "FeatureCollection",
  "features": [
    {
      "type": "Feature",
      "properties": {
        "norad_id": 28890,
        "name": "BEIJING 1",
        "group": "dmc",
        "lat": -61.73506382839108,
        "lon": 124.87904778393998,
        "alt_km": 697.7263565742423,
        "timestamp": "2025-12-07T16:44:03.577602+00:00",
        "meta_object_name": "BEIJING 1",
        "meta_object_id": "2005-043A",
        "meta_epoch": "2025-12-06T22:58:14.110464",
        "meta_mean_motion": 14.63357586,
        "meta_eccentricity": 0.00150586,
        "meta_inclination": 98.2657,
        "meta_ra_of_asc_node": 108.4507,
        "meta_arg_of_pericenter": 158.8815,
        "meta_mean_anomaly": 201.3011,
        "meta_ephemeris_type": 0,
        "meta_classification_type": "U",
        "meta_norad_cat_id": 28890,
        "meta_element_set_no": 999,
        "meta_rev_at_epoch": 7253,
        "meta_bstar": 0.00015749467,
        "meta_mean_motion_dot": 7.66e-06,
        "meta_mean_motion_ddot": 0,
        "tle_line1": "1 28890U 05043A   25340.95710776  .00000766  00000+0  15749-3 0  9992",
        "tle_line2": "2 28890  98.2657 108.4507 0015058 158.8815 201.3011 14.63357586 72539"
      },
      "geometry": {
        "type": "Point",
        "coordinates": [
          124.87904778393998,
          -61.73506382839108
        ]
      }
    },
    {
      "type": "Feature",
      "properties": {
        "norad_id": 33320,
        "name": "HUANJING 1A (HJ-1A)",
        "group": "dmc",
        "lat": -38.116097939341856,
        "lon": -23.73783642321458,
        "alt_km": 624.7793976504099,
        "timestamp": "2025-12-07T16:44:03.577627+00:00",
        "meta_object_name": "HUANJING 1A (HJ-1A)",
        "meta_object_id": "2008-041A",
        "meta_epoch": "2025-12-06T23:05:56.966496",
        "meta_mean_motion": 14.83366559,
        "meta_eccentricity": 0.00204795,
        "meta_inclination": 97.6535,
        "meta_ra_of_asc_node": 329.5022,
        "meta_arg_of_pericenter": 52.5845,
        "meta_mean_anomaly": 307.723,
        "meta_ephemeris_type": 0,
        "meta_classification_type": "U",
        "meta_norad_cat_id": 33320,
        "meta_element_set_no": 999,
        "meta_rev_at_epoch": 92990,
        "meta_bstar": 0.00033657048,
        "meta_mean_motion_dot": 2.718e-05,
        "meta_mean_motion_ddot": 0,
        "tle_line1": "1 33320U 08041A   25340.96246489  .00002718  00000+0  33657-3 0  9990",
        "tle_line2": "2 33320  97.6535 329.5022 0020479  52.5845 307.7230 14.83366559929903"
      },
      "geometry": {
        "type": "Point",
        "coordinates": [
          -23.73783642321458,
          -38.116097939341856
        ]
      }
    },
    {
      "type": "Feature",
      "properties": {
        "norad_id": 33321,
        "name": "HUANJING 1B (HJ-1B)",
        "group": "dmc",
        "lat": -13.699769639649404,
        "lon": 152.0413776140405,
        "alt_km": 630.5997154039796,
        "timestamp": "2025-12-07T16:44:03.577642+00:00",
        "meta_object_name": "HUANJING 1B (HJ-1B)",
        "meta_object_id": "2008-041B",
        "meta_epoch": "2025-12-06T22:03:08.061984",
        "meta_mean_motion": 14.82798426,
        "meta_eccentricity": 0.00382436,
        "meta_inclination": 97.6394,
        "meta_ra_of_asc_node": 333.1725,
        "meta_arg_of_pericenter": 94.2353,
        "meta_mean_anomaly": 266.3233,
        "meta_ephemeris_type": 0,
        "meta_classification_type": "U",
        "meta_norad_cat_id": 33321,
        "meta_element_set_no": 999,
        "meta_rev_at_epoch": 92991,
        "meta_bstar": 0.00028678065,
        "meta_mean_motion_dot": 2.297e-05,
        "meta_mean_motion_ddot": 0,
        "tle_line1": "1 33321U 08041B   25340.91884331  .00002297  00000+0  28678-3 0  9999",
        "tle_line2": "2 33321  97.6394 333.1725 0038243  94.2353 266.3233 14.82798426929918"
      },
      "geometry": {
        "type": "Point",
        "coordinates": [
          152.0413776140405,
          -13.699769639649404
        ]
      }
    },
    {
      "type": "Feature",
      "properties": {
        "norad_id": 33446,
        "name": "YAOGAN-4",
        "group": "dmc",
        "lat": 70.84519414549149,
        "lon": 115.46490551602176,
        "alt_km": 620.0360611779843,
        "timestamp": "2025-12-07T16:44:03.577654+00:00",
        "meta_object_name": "YAOGAN-4",
        "meta_object_id": "2008-061A",
        "meta_epoch": "2025-12-06T19:11:44.118816",
        "meta_mean_motion": 14.82653709,
        "meta_eccentricity": 0.00141035,
        "meta_inclination": 97.9176,
        "meta_ra_of_asc_node": 270.9574,
        "meta_arg_of_pericenter": 343.3516,
        "meta_mean_anomaly": 16.7232,
        "meta_ephemeris_type": 0,
        "meta_classification_type": "U",
        "meta_norad_cat_id": 33446,
        "meta_element_set_no": 999,
        "meta_rev_at_epoch": 91715,
        "meta_bstar": 0.00034781722,
        "meta_mean_motion_dot": 2.754e-05,
        "meta_mean_motion_ddot": 0,
        "tle_line1": "1 33446U 08061A   25340.79981619  .00002754  00000+0  34782-3 0  9993",
        "tle_line2": "2 33446  97.9176 270.9574 0014103 343.3516  16.7232 14.82653709917158"
      },
      "geometry": {
        "type": "Point",
        "coordinates": [
          115.46490551602176,
          70.84519414549149
        ]
      }
    },
    {
      "type": "Feature",
      "properties": {
        "norad_id": 35681,
        "name": "DEIMOS-1",
        "group": "dmc",
        "lat": 16.943772317454084,
        "lon": 140.16842893234747,
        "alt_km": 645.3101591085497,
        "timestamp": "2025-12-07T16:44:03.577666+00:00",
        "meta_object_name": "DEIMOS-1",
        "meta_object_id": "2009-041A",
        "meta_epoch": "2025-12-06T22:44:49.470720",
        "meta_mean_motion": 14.74938766,
        "meta_eccentricity": 0.0002688,
        "meta_inclination": 97.7153,
        "meta_ra_of_asc_node": 141.8212,
        "meta_arg_of_pericenter": 91.0249,
        "meta_mean_anomaly": 269.1268,
        "meta_ephemeris_type": 0,
        "meta_classification_type": "U",
        "meta_norad_cat_id": 35681,
        "meta_element_set_no": 999,
        "meta_rev_at_epoch": 87854,
        "meta_bstar": 0.00019622315,
        "meta_mean_motion_dot": 1.271e-05,
        "meta_mean_motion_ddot": 0,
        "tle_line1": "1 35681U 09041A   25340.94779480  .00001271  00000+0  19622-3 0  9992",
        "tle_line2": "2 35681  97.7153 141.8212 0002688  91.0249 269.1268 14.74938766878546"
      },
      "geometry": {
        "type": "Point",
        "coordinates": [
          140.16842893234747,
          16.943772317454084
        ]
      }
    },
    {
      "type": "Feature",
      "properties": {
        "norad_id": 35683,
        "name": "UK-DMC 2",
        "group": "dmc",
        "lat": 19.846142045266813,
        "lon": 113.88595169449802,
        "alt_km": 643.1783598588372,
        "timestamp": "2025-12-07T16:44:03.577677+00:00",
        "meta_object_name": "UK-DMC 2",
        "meta_object_id": "2009-041C",
        "meta_epoch": "2025-12-06T22:44:30.895584",
        "meta_mean_motion": 14.75601932,
        "meta_eccentricity": 0.00013425,
        "meta_inclination": 97.8564,
        "meta_ra_of_asc_node": 116.0143,
        "meta_arg_of_pericenter": 102.1904,
        "meta_mean_anomaly": 257.9456,
        "meta_ephemeris_type": 0,
        "meta_classification_type": "U",
        "meta_norad_cat_id": 35683,
        "meta_element_set_no": 999,
        "meta_rev_at_epoch": 87821,
        "meta_bstar": 0.00028013265,
        "meta_mean_motion_dot": 1.862e-05,
        "meta_mean_motion_ddot": 0,
        "tle_line1": "1 35683U 09041C   25340.94757981  .00001862  00000+0  28013-3 0  9996",
        "tle_line2": "2 35683  97.8564 116.0143 0001342 102.1904 257.9456 14.75601932878211"
      },
      "geometry": {
        "type": "Point",
        "coordinates": [
          113.88595169449802,
          19.846142045266813
        ]
      }
    },
    {
      "type": "Feature",
      "properties": {
        "norad_id": 40715,
        "name": "DMC3-FM1",
        "group": "dmc",
        "lat": -69.73955302834699,
        "lon": 7.6593828819664544,
        "alt_km": 619.4532126312961,
        "timestamp": "2025-12-07T16:44:03.577688+00:00",
        "meta_object_name": "DMC3-FM1",
        "meta_object_id": "2015-032A",
        "meta_epoch": "2025-12-06T21:49:22.950624",
        "meta_mean_motion": 14.85424799,
        "meta_eccentricity": 0.00050346,
        "meta_inclination": 97.6703,
        "meta_ra_of_asc_node": 208.3141,
        "meta_arg_of_pericenter": 342.4463,
        "meta_mean_anomaly": 17.6578,
        "meta_ephemeris_type": 0,
        "meta_classification_type": "U",
        "meta_norad_cat_id": 40715,
        "meta_element_set_no": 999,
        "meta_rev_at_epoch": 56136,
        "meta_bstar": 0.00017487365,
        "meta_mean_motion_dot": 1.455e-05,
        "meta_mean_motion_ddot": 0,
        "tle_line1": "1 40715U 15032A   25340.90929341  .00001455  00000+0  17487-3 0  9993",
        "tle_line2": "2 40715  97.6703 208.3141 0005034 342.4463  17.6578 14.85424799561366"
      },
      "geometry": {
        "type": "Point",
        "coordinates": [
          7.6593828819664544,
          -69.73955302834699
        ]
      }
    },
    {
      "type": "Feature",
      "properties": {
        "norad_id": 40716,
        "name": "DMC3-FM2",
        "group": "dmc",
        "lat": 48.347653856522335,
        "lon": 39.23488876016066,
        "alt_km": 611.2491995059927,
        "timestamp": "2025-12-07T16:44:03.577698+00:00",
        "meta_object_name": "DMC3-FM2",
        "meta_object_id": "2015-032B",
        "meta_epoch": "2025-12-06T19:07:46.987104",
        "meta_mean_motion": 14.85426178,
        "meta_eccentricity": 0.00056811,
        "meta_inclination": 97.6761,
        "meta_ra_of_asc_node": 209.6456,
        "meta_arg_of_pericenter": 347.244,
        "meta_mean_anomaly": 12.863,
        "meta_ephemeris_type": 0,
        "meta_classification_type": "U",
        "meta_norad_cat_id": 40716,
        "meta_element_set_no": 999,
        "meta_rev_at_epoch": 56134,
        "meta_bstar": 0.00018427393,
        "meta_mean_motion_dot": 1.537e-05,
        "meta_mean_motion_ddot": 0,
        "tle_line1": "1 40716U 15032B   25340.79707161  .00001537  00000+0  18427-3 0  9991",
        "tle_line2": "2 40716  97.6761 209.6456 0005681 347.2440  12.8630 14.85426178561347"
      },
      "geometry": {
        "type": "Point",
        "coordinates": [
          39.23488876016066,
          48.347653856522335
        ]
      }
    },
    {
      "type": "Feature",
      "properties": {
        "norad_id": 40717,
        "name": "DMC3-FM3",
        "group": "dmc",
        "lat": 15.350127674499655,
        "lon": -149.98016235792065,
        "alt_km": 610.032611728705,
        "timestamp": "2025-12-07T16:44:03.577709+00:00",
        "meta_object_name": "DMC3-FM3",
        "meta_object_id": "2015-032C",
        "meta_epoch": "2025-12-06T21:15:52.030368",
        "meta_mean_motion": 14.85417765,
        "meta_eccentricity": 0.00050294,
        "meta_inclination": 97.6816,
        "meta_ra_of_asc_node": 211.3605,
        "meta_arg_of_pericenter": 349.0839,
        "meta_mean_anomaly": 11.0266,
        "meta_ephemeris_type": 0,
        "meta_classification_type": "U",
        "meta_norad_cat_id": 40717,
        "meta_element_set_no": 999,
        "meta_rev_at_epoch": 56136,
        "meta_bstar": 0.00015328853,
        "meta_mean_motion_dot": 1.269e-05,
        "meta_mean_motion_ddot": 0,
        "tle_line1": "1 40717U 15032C   25340.88601887  .00001269  00000+0  15329-3 0  9990",
        "tle_line2": "2 40717  97.6816 211.3605 0005029 349.0839  11.0266 14.85417765561363"
      },
      "geometry": {
        "type": "Point",
        "coordinates": [
          -149.98016235792065,
          15.350127674499655
        ]
      }
    }
  ]
}